{
  "type": "FeatureCollection",
  "features": [
    {
      "type": "Feature",
      "properties": {
        "norad_id": 33886,
        "name": "IRIDIUM 33 DEB",
        "group": "iridium-33-debris",
        "lat": 3.5219538074814847,
        "lon": -111.97678118110345,
        "alt_km": 771.9215950909283,
        "timestamp": "2025-12-10T07:43:55.164190+00:00",
        "meta_object_name": "IRIDIUM 33 DEB",
        "meta_object_id": "1997-051BF",
        "meta_epoch": "2025-12-09T16:36:59.965344",
        "meta_mean_motion": 14.3604679,
        "meta_eccentricity": 0.0012144,
        "meta_inclination": 86.383,
        "meta_ra_of_asc_node": 68.5113,
        "meta_arg_of_pericenter": 253.4909,
        "meta_mean_anomaly": 269.1065,
        "meta_ephemeris_type": 0,
        "meta_classification_type": "U",
        "meta_norad_cat_id": 33886,
        "meta_element_set_no": 999,
        "meta_rev_at_epoch": 88008,
        "meta_bstar": 0.00035992,
        "meta_mean_motion_dot": 1.066e-05,
        "meta_mean_motion_ddot": 0,
        "tle_line1": "1 33886U 97051BF  25343.69236071  .00001066  00000+0  35992-3 0  9994",
        "tle_line2": "2 33886  86.3830  68.5113 0012144 253.4909 269.1065 14.36046790880089"
      },
      "geometry": {
        "type": "Point",
        "coordinates": [
          -111.97678118110345,
          3.5219538074814847
        ]
      }
    },
    {
      "type": "Feature",
      "properties": {
        "norad_id": 33887,
        "name": "IRIDIUM 33 DEB",
        "group": "iridium-33-debris",
        "lat": 76.91114266262427,
        "lon": 168.29596638439207,
        "alt_km": 762.7177299354944,
        "timestamp": "2025-12-10T07:43:55.164201+00:00",
        "meta_object_name": "IRIDIUM 33 DEB",
        "meta_object_id": "1997-051BG",
        "meta_epoch": "2025-12-09T07:58:22.365120",
        "meta_mean_motion": 14.37216828,
        "meta_eccentricity": 0.0004194,
        "meta_inclination": 86.3047,
        "meta_ra_of_asc_node": 4.8609,
        "meta_arg_of_pericenter": 242.0671,
        "meta_mean_anomaly": 141.6982,
        "meta_ephemeris_type": 0,
        "meta_classification_type": "U",
        "meta_norad_cat_id": 33887,
        "meta_element_set_no": 999,
        "meta_rev_at_epoch": 88116,
        "meta_bstar": 0.00025793,
        "meta_mean_motion_dot": 7.87e-06,
        "meta_mean_motion_ddot": 0,
        "tle_line1": "1 33887U 97051BG  25343.33220330  .00000787  00000+0  25793-3 0  9994",
        "tle_line2": "2 33887  86.3047   4.8609 0004194 242.0671 141.6982 14.37216828881163"
      },
      "geometry": {
        "type": "Point",
        "coordinates": [
          168.29596638439207,
          76.91114266262427
        ]
      }
    },
    {
      "type": "Feature",
      "properties": {
        "norad_id": 33953,
        "name": "IRIDIUM 33 DEB",
        "group": "iridium-33-debris",
        "lat": 18.77852903838997,
        "lon": -126.40351516219593,
        "alt_km": 700.5582622825759,
        "timestamp": "2025-12-10T07:43:55.164211+00:00",
        "meta_object_name": "IRIDIUM 33 DEB",
        "meta_object_id": "1997-051BN",
        "meta_epoch": "2025-12-09T11:16:25.701888",
        "meta_mean_motion": 14.55272572,
        "meta_eccentricity": 0.00184804,
        "meta_inclination": 86.384,
        "meta_ra_of_asc_node": 55.1984,
        "meta_arg_of_pericenter": 112.7861,
        "meta_mean_anomaly": 265.1429,
        "meta_ephemeris_type": 0,
        "meta_classification_type": "U",
        "meta_norad_cat_id": 33953,
        "meta_element_set_no": 999,
        "meta_rev_at_epoch": 88256,
        "meta_bstar": 0.0018147689,
        "meta_mean_motion_dot": 7.899e-05,
        "meta_mean_motion_ddot": 0,
        "tle_line1": "1 33953U 97051BN  25343.46974192  .00007899  00000+0  18148-2 0  9990",
        "tle_line2": "2 33953  86.3840  55.1984 0018480 112.7861 265.1429 14.55272572882561"
      },
      "geometry": {
        "type": "Point",
        "coordinates": [
          -126.40351516219593,
          18.77852903838997
        ]
      }
    },
    {
      "type": "Feature",
      "properties": {
        "norad_id": 33960,
        "name": "IRIDIUM 33 DEB",
        "group": "iridium-33-debris",
        "lat": 65.97320023257627,
        "lon": -60.89296728112271,
        "alt_km": 602.2031495901001,
        "timestamp": "2025-12-10T07:43:55.164222+00:00",
        "meta_object_name": "IRIDIUM 33 DEB",
        "meta_object_id": "1997-051BV",
        "meta_epoch": "2025-12-09T20:12:56.328768",
        "meta_mean_motion": 14.84936336,
        "meta_eccentricity": 0.0007341,
        "meta_inclination": 86.2533,
        "meta_ra_of_asc_node": 290.8802,
        "meta_arg_of_pericenter": 66.8511,
        "meta_mean_anomaly": 315.9506,
        "meta_ephemeris_type": 0,
        "meta_classification_type": "U",
        "meta_norad_cat_id": 33960,
        "meta_element_set_no": 999,
        "meta_rev_at_epoch": 88824,
        "meta_bstar": 0.0044424,
        "meta_mean_motion_dot": 0.00038025,
        "meta_mean_motion_ddot": 0,
        "tle_line1": "1 33960U 97051BV  25343.84231862  .00038025  00000+0  44424-2 0  9991",
        "tle_line2": "2 33960  86.2533 290.8802 0007341  66.8511 315.9506 14.84936336888247"
      },
      "geometry": {
        "type": "Point",
        "coordinates": [
          -60.89296728112271,
          65.97320023257627
        ]
      }
    },
    {
      "type": "Feature",
      "properties": {
        "norad_id": 33966,
        "name": "IRIDIUM 33 DEB",
        "group": "iridium-33-debris",
        "lat": -23.365164286277704,
        "lon": 45.50291577012036,
        "alt_km": 736.4221595592235,
        "timestamp": "2025-12-10T07:43:55.164233+00:00",
        "meta_object_name": "IRIDIUM 33 DEB",
        "meta_object_id": "1997-051CB",
        "meta_epoch": "2025-12-09T14:14:54.064320",
        "meta_mean_motion": 14.49574792,
        "meta_eccentricity": 0.0007042,
        "meta_inclination": 86.3923,
        "meta_ra_of_asc_node": 47.3773,
        "meta_arg_of_pericenter": 198.8596,
        "meta_mean_anomaly": 298.6433,
        "meta_ephemeris_type": 0,
        "meta_classification_type": "U",
        "meta_norad_cat_id": 33966,
        "meta_element_set_no": 999,
        "meta_rev_at_epoch": 88396,
        "meta_bstar": 0.00091737,
        "meta_mean_motion_dot": 3.54e-05,
        "meta_mean_motion_ddot": 0,
        "tle_line1": "1 33966U 97051CB  25343.59368130  .00003540  00000+0  91737-3 0  9992",
        "tle_line2": "2 33966  86.3923  47.3773 0007042 198.8596 298.6433 14.49574792883961"
      },
      "geometry": {
        "type": "Point",
        "coordinates": [
          45.50291577012036,
          -23.365164286277704
        ]
      }
    },
    {
      "type": "Feature",
      "properties": {
        "norad_id": 34071,
        "name": "IRIDIUM 33 DEB",
        "group": "iridium-33-debris",
        "lat": 43.86131213940997,
        "lon": 22.400335412433304,
        "alt_km": 721.4126209977148,
        "timestamp": "2025-12-10T07:43:55.164243+00:00",
        "meta_object_name": "IRIDIUM 33 DEB",
        "meta_object_id": "1997-051CE",
        "meta_epoch": "2025-12-09T19:55:54.192576",
        "meta_mean_motion": 14.49445714,
        "meta_eccentricity": 0.0009831,
        "meta_inclination": 86.3456,
        "meta_ra_of_asc_node": 19.0927,
        "meta_arg_of_pericenter": 115.3315,
        "meta_mean_anomaly": 244.8909,
        "meta_ephemeris_type": 0,
        "meta_classification_type": "U",
        "meta_norad_cat_id": 34071,
        "meta_element_set_no": 999,
        "meta_rev_at_epoch": 88292,
        "meta_bstar": 0.00098313,
        "meta_mean_motion_dot": 3.783e-05,
        "meta_mean_motion_ddot": 0,
        "tle_line1": "1 34071U 97051CE  25343.83048834  .00003783  00000+0  98313-3 0  9999",
        "tle_line2": "2 34071  86.3456  19.0927 0009831 115.3315 244.8909 14.49445714882925"
      },
      "geometry": {
        "type": "Point",
        "coordinates": [
          22.400335412433304,
          43.86131213940997
        ]
      }
    },
    {
      "type": "Feature",
      "properties": {
        "norad_id": 34077,
        "name": "IRIDIUM 33 DEB",
        "group": "iridium-33-debris",
        "lat": 66.4818563255139,
        "lon": -135.77831998243337,
        "alt_km": 668.3928220693533,
        "timestamp": "2025-12-10T07:43:55.164254+00:00",
        "meta_object_name": "IRIDIUM 33 DEB",
        "meta_object_id": "1997-051CL",
        "meta_epoch": "2025-12-09T13:24:46.082880",
        "meta_mean_motion": 14.64764722,
        "meta_eccentricity": 0.0010522,
        "meta_inclination": 86.386,
        "meta_ra_of_asc_node": 52.9083,
        "meta_arg_of_pericenter": 49.5485,
        "meta_mean_anomaly": 1.1471,
        "meta_ephemeris_type": 0,
        "meta_classification_type": "U",
        "meta_norad_cat_id": 34077,
        "meta_element_set_no": 999,
        "meta_rev_at_epoch": 88286,
        "meta_bstar": 0.0022801,
        "meta_mean_motion_dot": 0.00012191,
        "meta_mean_motion_ddot": 0,
        "tle_line1": "1 34077U 97051CL  25343.55886670  .00012191  00000+0  22801-2 0  9993",
        "tle_line2": "2 34077  86.3860  52.9083 0010522  49.5485   1.1471 14.64764722882865"
      },
      "geometry": {
        "type": "Point",
        "coordinates": [
          -135.77831998243337,
          66.4818563255139
        ]
      }
    }
  ]
}